STARLINK-4522           
1 53388U 22097A   23048.37950158  .00023252  00000+0  14753-2 0  9997
2 53388  53.2136  95.4414 0001382  85.6803 274.4347 15.08813120 29494
STARLINK-4523           
1 53389U 22097B   23048.17342035 -.00011677  00000+0 -71731-3 0  9995
2 53389  53.2156  96.3640 0001163 113.6472 246.4643 15.08811601 29466
STARLINK-4517           
1 53390U 22097C   23047.84590090 -.00004219  00000+0 -24721-3 0  9997
2 53390  53.2149  97.8371 0001136 100.0468 260.0652 15.08828373 30213
STARLINK-4521           
1 53391U 22097D   23048.50094404  .00025639  00000+0  16242-2 0  9995
2 53391  53.2149  94.8957 0001393 118.1484 241.9649 15.08817101 29516
STARLINK-4535           
1 53392U 22097E   23048.55983169 -.00002248  00000+0 -12326-3 0  9999
2 53392  53.2161  94.6262 0001124 114.5406 245.5703 15.08827964 29524
STARLINK-4530           
1 53393U 22097F   23048.23229388 -.00010992  00000+0 -67430-3 0  9992
2 53393  53.2152  96.0959 0001227  83.6702 276.4430 15.08803739 29471
STARLINK-4544           
1 53394U 22097G   23048.39239023  .00019419  00000+0  12355-2 0  9993
2 53394  53.2176  85.1496 0000873  96.2992 263.8100 15.08819894 29642
STARLINK-4534           
1 53395U 22097H   23047.82750788  .00000918  00000+0  75795-4 0  9990
2 53395  53.2141  97.9093 0001881  85.2740 274.8467 15.08839003 29909
STARLINK-4524           
1 53396U 22097J   23048.60765806  .00006417  00000+0  42116-3 0  9995
2 53396  53.2163  94.4152 0001060 110.9670 249.1435 15.08819101 29535
STARLINK-4515           
1 53397U 22097K   23048.41998326  .00019961  00000+0  12699-2 0  9990
2 53397  53.2153  95.2623 0000959 102.5160 257.5940 15.08804933 29502
STARLINK-4512           
1 53398U 22097L   23048.13662080 -.00008216  00000+0 -49901-3 0  9995
2 53398  53.2176  96.5243 0000767  50.5070 309.5990 15.08817666 29464
STARLINK-4528           
1 53399U 22097M   23048.28013291  .00014173  00000+0  90718-3 0  9995
2 53399  53.2156  95.8858 0001082 103.8622 256.2491 15.08823175 29481
STARLINK-4520           
1 53400U 22097N   23048.39055236  .00013850  00000+0  88692-3 0  9994
2 53400  53.2154  95.3887 0001630  86.5543 273.5636 15.08826258 29508
STARLINK-4525           
1 53401U 22097P   23048.40526163 -.00003772  00000+0 -21911-3 0  9994
2 53401  53.2155  95.3254 0001384 113.4243 246.6895 15.08823318 29503
STARLINK-4499           
1 53402U 22097Q   23048.51934297 -.00006576  00000+0 -39569-3 0  9991
2 53402  53.2191  94.7960 0001587 100.8862 259.2309 15.08815769 29526
STARLINK-4507           
1 53403U 22097R   23048.53134290  .00038152  00000+0  24038-2 0  9996
2 53403  53.2173  94.7483 0001007  85.6860 274.4247 15.08817054 29521
STARLINK-4509           
1 53404U 22097S   23048.50922440 -.00001910  00000+0 -10200-3 0  9997
2 53404  53.2178  84.8457 0001065 112.8109 247.2996 15.08833087 29658
STARLINK-4510           
1 53405U 22097T   23048.25070302 -.00006781  00000+0 -40865-3 0  9992
2 53405  53.2157  96.0128 0001166  87.1164 272.9962 15.08815450 29486
STARLINK-4533           
1 53406U 22097U   23048.42459691 -.00001960  00000+0 -10513-3 0  9995
2 53406  53.2189  85.2272 0001224 115.0190 245.0929 15.08820757 29645
STARLINK-4537           
1 53407U 22097V   23048.36666420 -.00001738  00000+0 -91181-4 0  9993
2 53407  53.2179  75.7243 0000971  83.7223 276.3880 15.08817958 29779
STARLINK-4491           
1 53408U 22097W   23048.10442510 -.00004684  00000+0 -27656-3 0  9996
2 53408  53.2167  86.6648 0001163 106.5776 253.5344 15.08819704 29591
STARLINK-4490           
1 53409U 22097X   23048.56169177  .00000853  00000+0  71701-4 0  9995
2 53409  53.2174  74.8062 0000761  86.2882 273.8198 15.08818836 29805
STARLINK-4492           
1 53410U 22097Y   23048.56442567  .00024650  00000+0  15623-2 0  9994
2 53410  53.2163  84.5987 0000869 112.0599 248.0486 15.08819664 29669
STARLINK-4497           
1 53411U 22097Z   23048.24058024  .00008257  00000+0  53672-3 0  9993
2 53411  53.2180  86.0523 0000587  85.4736 274.6323 15.08807153 29615
STARLINK-4496           
1 53412U 22097AA  23048.42090935 -.00003510  00000+0 -20262-3 0  9999
2 53412  53.2179  85.2431 0001539  90.4066 269.7103 15.08831315 29644
STARLINK-4500           
1 53413U 22097AB  23048.09705688  .00010510  00000+0  67776-3 0  9998
2 53413  53.2172  86.6998 0001170 119.4387 240.6722 15.08822519 29595
STARLINK-4304           
1 53414U 22097AC  23048.41721491 -.00002865  00000+0 -16193-3 0  9998
2 53414  53.2179  85.2657 0003408  17.0733 343.0374 15.08829045 29642
STARLINK-4479           
1 53415U 22097AD  23048.41355114  .00018560  00000+0  11817-2 0  9998
2 53415  53.2165  85.2823 0001636  76.4355 283.6820 15.08821972 29649
STARLINK-4480           
1 53416U 22097AE  23048.53593315  .00036000  00000+0  22682-2 0  9990
2 53416  53.2165  84.7352 0001586  79.0244 281.0927 15.08844972 29668
STARLINK-4484           
1 53417U 22097AF  23048.47610868  .00024541  00000+0  15560-2 0  9991
2 53417  53.2176  84.9964 0001104 108.2164 251.8948 15.08808678 29654
STARLINK-4481           
1 53418U 22097AG  23048.37024989  .00002673  00000+0  18604-3 0  9999
2 53418  53.2162  75.0440 0001060 117.4182 242.6918 15.08822049 29780
STARLINK-4476           
1 53419U 22097AH  23048.14122023 -.00009863  00000+0 -60287-3 0  9997
2 53419  53.2178  86.5068 0001394 109.6819 250.4323 15.08815756 29606
STARLINK-4552           
1 53420U 22097AJ  23048.39514548 -.00003417  00000+0 -19682-3 0  9995
2 53420  53.2179  85.3725 0001230  96.4279 263.6853 15.08821378 29643
STARLINK-4545           
1 53421U 22097AK  23048.59802523 -.00241996  00000+0 -15491-1 0  9999
2 53421  53.2168  84.4223 0001221  76.8650 283.2478 15.09348070 29678
STARLINK-4546           
1 53422U 22097AL  23048.58650813 -.00002012  00000+0 -10839-3 0  9999
2 53422  53.2161  84.5095 0001074 107.7944 252.3165 15.08833626 29671
STARLINK-4539           
1 53423U 22097AM  23048.13385536 -.00004489  00000+0 -26440-3 0  9993
2 53423  53.2190  86.5401 0000972 137.0808 223.0260 15.08805291 29609
STARLINK-4532           
1 53424U 22097AN  23048.38043020  .00020648  00000+0  13121-2 0  9994
2 53424  53.2163  85.4282 0001301  60.1850 299.9271 15.08827295 29641
STARLINK-4531           
1 53425U 22097AP  23048.19274316 -.00006755  00000+0 -40701-3 0  9998
2 53425  53.2164  86.2731 0000981  77.0889 283.0213 15.08816934 29618
STARLINK-4558           
1 53426U 22097AQ  23048.35928382  .00001488  00000+0  11158-3 0  9996
2 53426  53.2186  75.6749 0001025  98.8816 261.2292 15.08822959 29771
STARLINK-4541           
1 53427U 22097AR  23048.11913690  .00013304  00000+0  85294-3 0  9999
2 53427  53.2161  86.6073 0001346 117.4732 242.6397 15.08816634 29602
STARLINK-4540           
1 53428U 22097AS  23047.95447706 -.00001782  00000+0 -93939-4 0  9996
2 53428  53.2183  77.4140 0000973 102.2361 257.8740 15.08824265 29716
STARLINK-4543           
1 53429U 22097AT  23048.35559828  .00022490  00000+0  14268-2 0  9994
2 53429  53.2176  75.6528 0001447 108.1856 251.9294 15.08835401 29779
STARLINK-4538           
1 53430U 22097AU  23048.54696989 -.00004651  00000+0 -27448-3 0  9993
2 53430  53.2193  74.7096 0001308 122.9461 237.1657 15.08819022 29806
STARLINK-4548           
1 53431U 22097AV  23048.35658045 -.00003336  00000+0 -19175-3 0  9991
2 53431  53.2181  75.6583 0000858  81.9108 278.1981 15.08810604 29774
STARLINK-4557           
1 53432U 22097AW  23048.45493332 -.00003853  00000+0 -22426-3 0  9996
2 53432  53.2177  74.8599 0001097  86.2720 273.8398 15.08821339 29795
STARLINK-4549           
1 53433U 22097AX  23048.34454761  .00017579  00000+0  11206-2 0  9999
2 53433  53.2199  75.5837 0001741  79.0155 281.1033 15.08814163 29774
STARLINK-4498           
1 53434U 22097AY  23048.05378130 -.00002540  00000+0 -14155-3 0  9994
2 53434  53.2157  76.6244 0001685  89.9234 270.1951 15.08835397 29733
STARLINK-4542           
1 53435U 22097AZ  23048.12466829 -.00010555  00000+0 -64651-3 0  9997
2 53435  53.2163  76.3552 0001223 115.2203 244.8916 15.08813922 29747
STARLINK-4527           
1 53436U 22097BA  23048.44755110 -.00004875  00000+0 -28855-3 0  9991
2 53436  53.2168  74.8161 0001818  93.2095 266.9105 15.08820557 29798
STARLINK-4526           
1 53438U 22097BC  23048.24516826 -.00004921  00000+0 -29152-3 0  9993
2 53438  53.2169  75.6847 0001228  89.9118 270.2015 15.08811869 29765
STARLINK-4519           
1 53439U 22097BD  23048.30771283 -.00004495  00000+0 -26462-3 0  9998
2 53439  53.2155  75.3593 0000971 113.0639 247.0455 15.08822242 29775
2022-098A               
1 53444U 22098A   23048.34610492  .00014478  00000+0  86504-3 0  9996
2 53444  97.5247 146.3065 0010910 321.6746  78.7646 15.11143499 28849
2022-098B               
1 53445U 22098B   23048.32162877  .00014643  00000+0  87569-3 0  9990
2 53445  97.5280 146.4259 0007674 351.1999  93.5030 15.11134808 28828
2022-098C               
1 53446U 22098C   23048.34827745  .00014777  00000+0  88291-3 0  9996
2 53446  97.5294 146.4308 0010368 326.7920 119.5852 15.11144715 28824
2022-098D               
1 53447U 22098D   23048.34146137  .00014922  00000+0  89188-3 0  9994
2 53447  97.5210 146.2222 0009932 334.5573 111.4289 15.11132959 28824
2022-098E               
1 53448U 22098E   23048.33496420  .00014931  00000+0  89243-3 0  9999
2 53448  97.5284 146.4090 0010453 352.4024  93.0700 15.11127608 28829
2022-098F               
1 53449U 22098F   23048.32829778  .00015341  00000+0  91637-3 0  9991
2 53449  97.5227 146.2815 0009255 347.6339  97.4115 15.11154170 28825
2022-098G               
1 53450U 22098G   23048.31400492  .00014477  00000+0  86553-3 0  9990
2 53450  97.5277 146.4304 0006728 358.1625  86.4941 15.11151419 28822
2022-098H               
1 53451U 22098H   23048.30708443  .00014449  00000+0  86350-3 0  9991
2 53451  97.5321 146.5601 0006806 359.1446  86.4621 15.11166622 28820
2022-098J               
1 53452U 22098J   23048.30113392  .00014382  00000+0  86029-3 0  9994
2 53452  97.5229 146.3255 0006376   0.3206  84.9728 15.11135100 28820
